NORAD_CAT_ID,OBJECT_NAME,OBJECT_TYPE,EPOCH,MEAN_MOTION,ECCENTRICITY,INCLINATION,RA_OF_ASC_NODE,ARG_OF_PERICENTER,MEAN_ANOMALY,BSTAR,MEAN_MOTION_DOT,MEAN_MOTION_DDOT,TLE_LINE0,TLE_LINE1,TLE_LINE2,SEMIMAJOR_AXIS,PERIOD,APOGEE,PERIGEE,DECAYED
50183.0,STARLINK-3281,PAYLOAD,2024-04-08 20:08:58,15.08842664,0.0001361,53.2162,150.8711,88.6652,271.4496,0.00011125,1.483e-05,0.0,0 STARLINK-3281,1 50183U 21125AD  24099.83956951  .00001483  00000-0  11125-3 0  9997,2 50183  53.2162 150.8711 0001361  88.6652 271.4496 15.08842664127868,6917.872,95.437,540.679,538.796,0.0
50183.0,STARLINK-3281,PAYLOAD,2024-04-09 02:30:30,15.08856893,0.0001421,53.2167,149.6825,87.5035,272.612,-0.00010906,-2.024e-05,0.0,0 STARLINK-3281,1 50183U 21125AD  24100.10452400 -.00002024  00000-0 -10906-3 0  9990,2 50183  53.2167 149.6825 0001421  87.5035 272.6120 15.08856893127906,6917.829,95.436,540.677,538.711,0.0
50183.0,STARLINK-3281,PAYLOAD,2024-04-09 10:27:27,15.0883502,0.0001494,53.2172,148.1962,95.6402,264.4761,0.00014928,2.088e-05,0.0,0 STARLINK-3281,1 50183U 21125AD  24100.43573580  .00002088  00000-0  14928-3 0  9995,2 50183  53.2172 148.1962 0001494  95.6402 264.4761 15.08835020127950,6917.896,95.438,540.794,538.727,0.0
50183.0,STARLINK-3281,PAYLOAD,2024-04-09 19:59:46,15.08842777,0.0001555,53.2185,146.4115,92.9365,267.1805,0.00012565,1.712e-05,0.0,0 STARLINK-3281,1 50183U 21125AD  24100.83317182  .00001712  00000-0  12565-3 0  9991,2 50183  53.2185 146.4115 0001555  92.9365 267.1805 15.08842777131143,6917.872,95.437,540.813,538.661,0.0
50183.0,STARLINK-3281,PAYLOAD,2024-04-10 11:53:38,15.08830777,0.000177,53.219,143.4361,94.2287,265.8908,7.207e-06,-1.73e-06,0.0,0 STARLINK-3281,1 50183U 21125AD  24101.49558429 -.00000173  00000-0  72070-5 0  9995,2 50183  53.2190 143.4361 0001770  94.2287 265.8908 15.08830777128115,6917.909,95.438,540.998,538.549,0.0
50183.0,STARLINK-3281,PAYLOAD,2024-04-10 19:50:33,15.08841817,0.0001519,53.2177,141.9509,91.9918,268.1248,3.8652e-05,3.27e-06,0.0,0 STARLINK-3281,1 50183U 21125AD  24101.82677638  .00000327  00000-0  38652-4 0  9993,2 50183  53.2177 141.9509 0001519  91.9918 268.1248 15.08841817128168,6917.875,95.437,540.791,538.689,0.0
50183.0,STARLINK-3281,PAYLOAD,2024-04-11 10:09:01,15.0884496,0.0001467,53.2171,139.2734,89.3676,270.7484,7.4868e-05,9.04e-06,0.0,0 STARLINK-3281,1 50183U 21125AD  24102.42293390  .00000904  00000-0  74868-4 0  9999,2 50183  53.2171 139.2734 0001467  89.3676 270.7484 15.08844960131387,6917.865,95.437,540.745,538.715,0.0
50183.0,STARLINK-3281,PAYLOAD,2024-04-11 19:41:19,15.08854953,0.0001492,53.2173,137.4871,87.5488,272.5675,4.8273e-05,4.81e-06,0.0,0 STARLINK-3281,1 50183U 21125AD  24102.82036593  .00000481  00000-0  48273-4 0  9994,2 50183  53.2173 137.4871 0001492  87.5488 272.5675 15.08854953128314,6917.835,95.437,540.732,538.668,0.0
50183.0,STARLINK-3281,PAYLOAD,2024-04-12 02:02:52,15.08840109,0.000174,53.2172,136.3,85.7144,274.4047,0.00017452,2.491e-05,0.0,0 STARLINK-3281,1 50183U 21125AD  24103.08533438  .00002491  00000-0  17452-3 0  9990,2 50183  53.2172 136.3000 0001740  85.7144 274.4047 15.08840109128356,6917.88,95.438,540.949,538.541,0.0
50183.0,STARLINK-3281,PAYLOAD,2024-04-12 08:24:25,15.08842222,0.000158,53.2178,135.1102,95.5055,264.6118,0.00012801,1.75e-05,0.0,0 STARLINK-3281,1 50183U 21125AD  24103.35029433  .00001750  00000-0  12801-3 0  9995,2 50183  53.2178 135.1102 0001580  95.5055 264.6118 15.08842222131525,6917.874,95.437,540.832,538.646,0.0
50183.0,STARLINK-3281,PAYLOAD,2024-04-13 05:04:26,15.08841568,0.0001601,53.2171,131.2429,92.5027,267.6149,5.8409e-05,6.42e-06,0.0,0 STARLINK-3281,1 50183U 21125AD  24104.21141678  .00000642  00000-0  58409-4 0  9991,2 50183  53.2171 131.2429 0001601  92.5027 267.6149 15.08841568128522,6917.876,95.437,540.848,538.633,0.0
50183.0,STARLINK-3281,PAYLOAD,2024-04-13 11:25:58,15.08841228,0.000145,53.2167,130.0533,100.505,259.6106,-3.5147e-06,-3.44e-06,0.0,0 STARLINK-3281,1 50183U 21125AD  24104.47637702 -.00000344  00000-0 -35147-5 0  9993,2 50183  53.2167 130.0533 0001450 100.5050 259.6106 15.08841228131697,6917.877,95.437,540.745,538.739,0.0
50183.0,STARLINK-3281,PAYLOAD,2024-04-14 11:16:45,15.08843549,0.0001488,53.2162,125.5933,97.1875,262.9287,0.00010752,1.424e-05,0.0,0 STARLINK-3281,1 50183U 21125AD  24105.46997261  .00001424  00000-0  10752-3 0  9993,2 50183  53.2162 125.5933 0001488  97.1875 262.9287 15.08843549128716,6917.87,95.437,540.764,538.705,0.0
50183.0,STARLINK-3281,PAYLOAD,2024-04-15 04:46:00,15.08839261,0.0001538,53.2163,122.3218,103.7967,256.3196,9.3512e-05,1.201e-05,0.0,0 STARLINK-3281,1 50183U 21125AD  24106.19861618  .00001201  00000-0  93512-4 0  9999,2 50183  53.2163 122.3218 0001538 103.7967 256.3196 15.08839261128824,6917.883,95.438,540.812,538.684,0.0
50183.0,STARLINK-3281,PAYLOAD,2024-04-15 06:21:23,15.0883872,0.0001543,53.2166,122.0243,106.2794,253.8368,8.6204e-05,1.084e-05,0.0,0 STARLINK-3281,1 50183U 21125AD  24106.26485656  .00001084  00000-0  86204-4 0  9990,2 50183  53.2166 122.0243 0001543 106.2794 253.8368 15.08838720131965,6917.884,95.438,540.817,538.682,0.0
50183.0,STARLINK-3281,PAYLOAD,2024-04-16 04:36:47,15.08836287,0.0001746,53.218,117.8632,99.112,261.007,9.3495e-06,-1.39e-06,0.0,0 STARLINK-3281,1 50183U 21125AD  24107.19222189 -.00000139  00000-0  93495-5 0  9995,2 50183  53.2180 117.8632 0001746  99.1120 261.0070 15.08836287128977,6917.892,95.438,540.965,538.549,0.0
50183.0,STARLINK-3281,PAYLOAD,2024-04-16 07:47:34,15.08836357,0.0001723,53.2184,117.2701,103.9633,256.1551,6.2407e-06,-1.89e-06,0.0,0 STARLINK-3281,1 50183U 21125AD  24107.32470177 -.00000189  00000-0  62407-5 0  9996,2 50183  53.2184 117.2701 0001723 103.9633 256.1551 15.08836357132129,6917.892,95.438,540.948,538.565,0.0
50183.0,STARLINK-3281,PAYLOAD,2024-04-17 04:27:34,15.08842327,0.0001804,53.2188,113.4039,113.0048,247.1135,0.00011604,1.559e-05,0.0,0 STARLINK-3281,1 50183U 21125AD  24108.18581512  .00001559  00000-0  11604-3 0  9999,2 50183  53.2188 113.4039 0001804 113.0048 247.1135 15.08842327129125,6917.873,95.437,540.986,538.49,0.0
50183.0,STARLINK-3281,PAYLOAD,2024-04-17 09:13:43,15.08845285,0.0001443,53.2162,112.5106,97.3307,262.7849,0.00015395,2.163e-05,0.0,0 STARLINK-3281,1 50183U 21125AD  24108.38453375  .00002163  00000-0  15395-3 0  9999,2 50183  53.2162 112.5106 0001443  97.3307 262.7849 15.08845285132285,6917.864,95.437,540.727,538.731,0.0
50183.0,STARLINK-3281,PAYLOAD,2024-04-18 04:18:22,15.08832485,0.0001579,53.2169,108.9425,101.0568,259.0602,2.8745e-05,1.69e-06,0.0,0 STARLINK-3281,1 50183U 21125AD  24109.17942244  .00000169  00000-0  28745-4 0  9993,2 50183  53.2169 108.9425 0001579 101.0568 259.0602 15.08832485129276,6917.903,95.438,540.861,538.676,0.0
50183.0,STARLINK-3281,PAYLOAD,2024-04-18 09:04:32,15.0883013,0.0001421,53.2168,108.0491,98.6322,261.4831,2.7685e-05,1.53e-06,0.0,0 STARLINK-3281,1 50183U 21125AD  24109.37814873  .00000153  00000-0  27685-4 0  9996,2 50183  53.2168 108.0491 0001421  98.6322 261.4831 15.08830130132432,6917.911,95.438,540.759,538.793,0.0
50183.0,STARLINK-3281,PAYLOAD,2024-04-19 04:09:06,15.08864661,0.0001035,53.2163,104.4848,56.4722,303.6368,0.00020773,3.022e-05,0.0,0 STARLINK-3281,1 50183U 21125AD  24110.17299569  .00003022  00000-0  20773-3 0  9993,2 50183  53.2163 104.4848 0001035  56.4722 303.6368 15.08864661129425,6917.805,95.436,540.386,538.954,0.0
50183.0,STARLINK-3281,PAYLOAD,2024-04-19 07:19:54,15.08833427,0.0001256,53.2171,103.8852,110.6043,249.5083,-6.5747e-05,-1.334e-05,0.0,0 STARLINK-3281,1 50183U 21125AD  24110.30549722 -.00001334  00000-0 -65747-4 0  9994,2 50183  53.2171 103.8852 0001256 110.6043 249.5083 15.08833427129446,6917.9,95.438,540.634,538.897,0.0
50183.0,STARLINK-3281,PAYLOAD,2024-04-19 23:13:46,15.08824592,0.0001266,53.217,100.9103,96.9755,263.1381,6.2006e-07,-2.78e-06,0.0,0 STARLINK-3281,1 50183U 21125AD  24110.96790443 -.00000278  00000-0  62006-6 0  9996,2 50183  53.2170 100.9103 0001266  96.9755 263.1381 15.08824592132674,6917.927,95.439,540.668,538.917,0.0
50183.0,STARLINK-3281,PAYLOAD,2024-04-20 05:35:19,15.08828727,0.0001454,53.2162,99.7241,81.1428,278.9729,5.1648e-05,5.34e-06,0.0,0 STARLINK-3281,1 50183U 21125AD  24111.23286377  .00000534  00000-0  51648-4 0  9995,2 50183  53.2162  99.7241 0001454  81.1428 278.9729 15.08828727132714,6917.915,95.438,540.786,538.774,0.0
50183.0,STARLINK-3281,PAYLOAD,2024-04-21 03:50:43,15.0881608,0.0001665,53.2178,95.5555,129.31,230.804,5.4299e-05,5.76e-06,0.0,0 STARLINK-3281,1 50183U 21125AD  24112.16023039  .00000576  00000-0  54299-4 0  9993,2 50183  53.2178  95.5555 0001665 129.3100 230.8040 15.08816080129728,6917.954,95.439,540.97,538.667,0.0
50183.0,STARLINK-3281,PAYLOAD,2024-04-21 08:36:53,15.08812096,0.0001543,53.2175,94.6652,125.3947,234.7189,2.5251e-05,1.14e-06,0.0,0 STARLINK-3281,1 50183U 21125AD  24112.35895718  .00000114  00000-0  25251-4 0  9999,2 50183  53.2175  94.6652 0001543 125.3947 234.7189 15.08812096132884,6917.966,95.439,540.898,538.763,0.0
50183.0,STARLINK-3281,PAYLOAD,2024-04-21 22:55:21,15.08828569,0.0001364,53.2184,91.9934,94.5767,265.5381,9.7078e-05,1.257e-05,0.0,0 STARLINK-3281,1 50183U 21125AD  24112.95511385  .00001257  00000-0  97078-4 0  9995,2 50183  53.2184  91.9934 0001364  94.5767 265.5381 15.08828569132973,6917.915,95.438,540.724,538.837,0.0
50183.0,STARLINK-3281,PAYLOAD,2024-04-22 03:41:30,15.08833687,0.0001422,53.2176,91.104,77.0844,283.0307,0.00017751,2.538e-05,0.0,0 STARLINK-3281,1 50183U 21125AD  24113.15383051  .00002538  00000-0  17751-3 0  9997,2 50183  53.2176  91.1040 0001422  77.0844 283.0307 15.08833687129876,6917.9,95.438,540.748,538.781,0.0
50183.0,STARLINK-3281,PAYLOAD,2024-04-22 08:27:40,15.08845055,0.0001627,53.2184,90.213,92.0626,268.0553,3.0906e-05,2.04e-06,0.0,0 STARLINK-3281,1 50183U 21125AD  24113.35254700  .00000204  00000-0  30906-4 0  9993,2 50183  53.2184  90.2130 0001627  92.0626 268.0553 15.08845055129909,6917.865,95.437,540.855,538.604,0.0
